[{"OBJECT_NAME":"STARLINK-4394","OBJECT_ID":"2022-099C","EPOCH":"2026-03-09T21:11:02.458176","MEAN_MOTION":15.05649111,"ECCENTRICITY":0.00012135,"INCLINATION":97.6021,"RA_OF_ASC_NODE":191.4652,"ARG_OF_PERICENTER":230.8564,"MEAN_ANOMALY":129.2555,"EPHEMERIS_TYPE":0,"CLASSIFICATION_TYPE":"U","NORAD_CAT_ID":53467,"ELEMENT_SET_NO":999,"REV_AT_EPOCH":19607,"BSTAR":0.00045067952,"MEAN_MOTION_DOT":6.448e-5,"MEAN_MOTION_DDOT":0},{"OBJECT_NAME":"SL-8 DEB","OBJECT_ID":"1981-041D","EPOCH":"2026-03-09T21:47:25.057824","MEAN_MOTION":15.02958497,"ECCENTRICITY":0.00072626,"INCLINATION":74.0316,"RA_OF_ASC_NODE":15.8034,"ARG_OF_PERICENTER":178.7148,"MEAN_ANOMALY":237.7014,"EPHEMERIS_TYPE":0,"CLASSIFICATION_TYPE":"U","NORAD_CAT_ID":14346,"ELEMENT_SET_NO":999,"REV_AT_EPOCH":27979,"BSTAR":0.0011219118,"MEAN_MOTION_DOT":0.00015083,"MEAN_MOTION_DDOT":0}]
